{"type": "FeatureCollection", "features": [{"type": "Feature", "properties": {"norad_id": 66454, "name": "VIASAT-3 F2", "group": "last-30-days", "lat": -3.006586517994225, "lon": -101.43481830835562, "alt_km": 23207.126032741664, "timestamp": "2025-12-13T13:34:33.863044+00:00", "meta": {"OBJECT_NAME": "VIASAT-3 F2", "OBJECT_ID": "2025-261A", "EPOCH": "2025-12-12T22:24:17.478432", "MEAN_MOTION": 2.09869596, "ECCENTRICITY": 0.2249784, "INCLINATION": 5.3891, "RA_OF_ASC_NODE": 292.3457, "ARG_OF_PERICENTER": 185.8732, "MEAN_ANOMALY": 3.755, "EPHEMERIS_TYPE": 0, "CLASSIFICATION_TYPE": "U", "NORAD_CAT_ID": 66454, "ELEMENT_SET_NO": 999, "REV_AT_EPOCH": 64, "BSTAR": 0, "MEAN_MOTION_DOT": -8.1e-07, "MEAN_MOTION_DDOT": 0}, "tle": {"line1": "1 66454U 25261A   25346.93353563 -.00000081  00000+0  00000+0 0  9996", "line2": "2 66454   5.3891 292.3457 2249784 185.8732   3.7550  2.09869596   649"}}, "geometry": {"type": "Point", "coordinates": [-101.43481830835562, -3.006586517994225]}}, {"type": "Feature", "properties": {"norad_id": 66455, "name": "ATLAS 5 CENTAUR R/B", "group": "last-30-days", "lat": -4.448382686436717, "lon": -114.61961561668844, "alt_km": 20436.38610058438, "timestamp": "2025-12-13T13:34:33.863093+00:00", "meta": {"OBJECT_NAME": "ATLAS 5 CENTAUR R/B", "OBJECT_ID": "2025-261B", "EPOCH": "2025-12-12T08:49:15.432672", "MEAN_MOTION": 2.28259929, "ECCENTRICITY": 0.2329457, "INCLINATION": 6.1462, "RA_OF_ASC_NODE": 291.6535, "ARG_OF_PERICENTER": 186.4094, "MEAN_ANOMALY": 198.8735, "EPHEMERIS_TYPE": 0, "CLASSIFICATION_TYPE": "U", "NORAD_CAT_ID": 66455, "ELEMENT_SET_NO": 999, "REV_AT_EPOCH": 64, "BSTAR": 0, "MEAN_MOTION_DOT": -7.6e-07, "MEAN_MOTION_DDOT": 0}, "tle": {"line1": "1 66455U 25261B   25346.36753973 -.00000076  00000+0  00000+0 0  9997", "line2": "2 66455   6.1462 291.6535 2329457 186.4094 198.8735  2.28259929   641"}}, "geometry": {"type": "Point", "coordinates": [-114.61961561668844, -4.448382686436717]}}, {"type": "Feature", "properties": {"norad_id": 66456, "name": "STARLINK-35643", "group": "last-30-days", "lat": 35.233444487481094, "lon": 116.13338411879069, "alt_km": 438.923654069059, "timestamp": "2025-12-13T13:34:33.863110+00:00", "meta": {"OBJECT_NAME": "STARLINK-35643", "OBJECT_ID": "2025-262A", "EPOCH": "2025-12-12T12:26:00.401280", "MEAN_MOTION": 15.40697373, "ECCENTRICITY": 0.00026501, "INCLINATION": 43.0001, "RA_OF_ASC_NODE": 72.889, "ARG_OF_PERICENTER": 289.9432, "MEAN_ANOMALY": 70.1139, "EPHEMERIS_TYPE": 0, "CLASSIFICATION_TYPE": "U", "NORAD_CAT_ID": 66456, "ELEMENT_SET_NO": 999, "REV_AT_EPOCH": 552, "BSTAR": 0.0017000421, "MEAN_MOTION_DOT": 0.00071376, "MEAN_MOTION_DDOT": 0}, "tle": {"line1": "1 66456U 25262A   25346.51806020  .00071376  00000+0  17000-2 0  9999", "line2": "2 66456  43.0001  72.8890 0002650 289.9432  70.1139 15.40697373  5529"}}, "geometry": {"type": "Point", "coordinates": [116.13338411879069, 35.233444487481094]}}, {"type": "Feature", "properties": {"norad_id": 66457, "name": "STARLINK-35466", "group": "last-30-days", "lat": 42.53722492723357, "lon": 146.74317649239362, "alt_km": 437.8318464354452, "timestamp": "2025-12-13T13:34:33.863123+00:00", "meta": {"OBJECT_NAME": "STARLINK-35466", "OBJECT_ID": "2025-262B", "EPOCH": "2025-12-12T23:13:01.317504", "MEAN_MOTION": 15.40742511, "ECCENTRICITY": 0.00013775, "INCLINATION": 42.999, "RA_OF_ASC_NODE": 70.2408, "ARG_OF_PERICENTER": 237.9042, "MEAN_ANOMALY": 122.1681, "EPHEMERIS_TYPE": 0, "CLASSIFICATION_TYPE": "U", "NORAD_CAT_ID": 66457, "ELEMENT_SET_NO": 999, "REV_AT_EPOCH": 559, "BSTAR": 0.0013899049, "MEAN_MOTION_DOT": 0.00058283, "MEAN_MOTION_DDOT": 0}, "tle": {"line1": "1 66457U 25262B   25346.96737636  .00058283  00000+0  13899-2 0  9999", "line2": "2 66457  42.9990  70.2408 0001377 237.9042 122.1681 15.40742511  5599"}}, "geometry": {"type": "Point", "coordinates": [146.74317649239362, 42.53722492723357]}}, {"type": "Feature", "properties": {"norad_id": 66458, "name": "STARLINK-35684", "group": "last-30-days", "lat": 39.931824281027275, "lon": 130.7511168544368, "alt_km": 438.3278598087636, "timestamp": "2025-12-13T13:34:33.863134+00:00", "meta": {"OBJECT_NAME": "STARLINK-35684", "OBJECT_ID": "2025-262C", "EPOCH": "2025-12-12T15:29:28.852512", "MEAN_MOTION": 15.40734185, "ECCENTRICITY": 0.00016135, "INCLINATION": 43.0009, "RA_OF_ASC_NODE": 72.1254, "ARG_OF_PERICENTER": 241.6784, "MEAN_ANOMALY": 118.3909, "EPHEMERIS_TYPE": 0, "CLASSIFICATION_TYPE": "U", "NORAD_CAT_ID": 66458, "ELEMENT_SET_NO": 999, "REV_AT_EPOCH": 554, "BSTAR": 0.0015334099, "MEAN_MOTION_DOT": 0.00064366, "MEAN_MOTION_DDOT": 0}, "tle": {"line1": "1 66458U 25262C   25346.64547283  .00064366  00000+0  15334-2 0  9997", "line2": "2 66458  43.0009  72.1254 0001613 241.6784 118.3909 15.40734185  5544"}}, "geometry": {"type": "Point", "coordinates": [130.7511168544368, 39.931824281027275]}}, {"type": "Feature", "properties": {"norad_id": 66459, "name": "STARLINK-35449", "group": "last-30-days", "lat": 42.7857489041251, "lon": 163.4347299576032, "alt_km": 438.4422657906862, "timestamp": "2025-12-13T13:34:33.863146+00:00", "meta": {"OBJECT_NAME": "STARLINK-35449", "OBJECT_ID": "2025-262D", "EPOCH": "2025-12-12T20:00:01.999872", "MEAN_MOTION": 15.40718077, "ECCENTRICITY": 0.00016605, "INCLINATION": 43.0003, "RA_OF_ASC_NODE": 70.9813, "ARG_OF_PERICENTER": 292.278, "MEAN_ANOMALY": 56.0229, "EPHEMERIS_TYPE": 0, "CLASSIFICATION_TYPE": "U", "NORAD_CAT_ID": 66459, "ELEMENT_SET_NO": 999, "REV_AT_EPOCH": 565, "BSTAR": -0.0010682545, "MEAN_MOTION_DOT": -0.00044694, "MEAN_MOTION_DDOT": 0}, "tle": {"line1": "1 66459U 25262D   25346.83335648 -.00044694  00000+0 -10683-2 0  9995", "line2": "2 66459  43.0003  70.9813 0001660 292.2780  56.0229 15.40718077  5653"}}, "geometry": {"type": "Point", "coordinates": [163.4347299576032, 42.7857489041251]}}, {"type": "Feature", "properties": {"norad_id": 66460, "name": "STARLINK-35424", "group": "last-30-days", "lat": 40.595972414612035, "lon": 179.85668741240298, "alt_km": 438.63600963675526, "timestamp": "2025-12-13T13:34:33.863157+00:00", "meta": {"OBJECT_NAME": "STARLINK-35424", "OBJECT_ID": "2025-262E", "EPOCH": "2025-12-12T20:00:01.999872", "MEAN_MOTION": 15.40704738, "ECCENTRICITY": 0.00014489, "INCLINATION": 43.0003, "RA_OF_ASC_NODE": 70.9515, "ARG_OF_PERICENTER": 262.3445, "MEAN_ANOMALY": 98.4191, "EPHEMERIS_TYPE": 0, "CLASSIFICATION_TYPE": "U", "NORAD_CAT_ID": 66460, "ELEMENT_SET_NO": 999, "REV_AT_EPOCH": 565, "BSTAR": -0.0007399132, "MEAN_MOTION_DOT": -0.0003109, "MEAN_MOTION_DDOT": 0}, "tle": {"line1": "1 66460U 25262E   25346.83335648 -.00031090  00000+0 -73991-3 0  9995", "line2": "2 66460  43.0003  70.9515 0001448 262.3445  98.4191 15.40704738  5651"}}, "geometry": {"type": "Point", "coordinates": [179.85668741240298, 40.595972414612035]}}, {"type": "Feature", "properties": {"norad_id": 66461, "name": "STARLINK-35132", "group": "last-30-days", "lat": 36.26774569809371, "lon": -165.23904518607176, "alt_km": 439.6118071662668, "timestamp": "2025-12-13T13:34:33.863166+00:00", "meta": {"OBJECT_NAME": "STARLINK-35132", "OBJECT_ID": "2025-262F", "EPOCH": "2025-12-12T20:00:01.999872", "MEAN_MOTION": 15.40711797, "ECCENTRICITY": 0.00017393, "INCLINATION": 43.0004, "RA_OF_ASC_NODE": 70.9205, "ARG_OF_PERICENTER": 295.1463, "MEAN_ANOMALY": 78.0567, "EPHEMERIS_TYPE": 0, "CLASSIFICATION_TYPE": "U", "NORAD_CAT_ID": 66461, "ELEMENT_SET_NO": 999, "REV_AT_EPOCH": 565, "BSTAR": -0.001051285, "MEAN_MOTION_DOT": -0.00043984, "MEAN_MOTION_DDOT": 0}, "tle": {"line1": "1 66461U 25262F   25346.83335648 -.00043984  00000+0 -10513-2 0  9991", "line2": "2 66461  43.0004  70.9205 0001739 295.1463  78.0567 15.40711797  5650"}}, "geometry": {"type": "Point", "coordinates": [-165.23904518607176, 36.26774569809371]}}, {"type": "Feature", "properties": {"norad_id": 66462, "name": "STARLINK-35499", "group": "last-30-days", "lat": 30.32948231936671, "lon": -152.22031184129284, "alt_km": 440.1344310275481, "timestamp": "2025-12-13T13:34:33.863177+00:00", "meta": {"OBJECT_NAME": "STARLINK-35499", "OBJECT_ID": "2025-262G", "EPOCH": "2025-12-12T20:00:01.999872", "MEAN_MOTION": 15.40784373, "ECCENTRICITY": 0.00012484, "INCLINATION": 43.0007, "RA_OF_ASC_NODE": 70.8895, "ARG_OF_PERICENTER": 264.2124, "MEAN_ANOMALY": 121.3522, "EPHEMERIS_TYPE": 0, "CLASSIFICATION_TYPE": "U", "NORAD_CAT_ID": 66462, "ELEMENT_SET_NO": 999, "REV_AT_EPOCH": 565, "BSTAR": -0.0029662552, "MEAN_MOTION_DOT": -0.00122583, "MEAN_MOTION_DDOT": 0}, "tle": {"line1": "1 66462U 25262G   25346.83335648 -.00122583  00000+0 -29663-2 0  9991", "line2": "2 66462  43.0007  70.8895 0001248 264.2124 121.3522 15.40784373  5657"}}, "geometry": {"type": "Point", "coordinates": [-152.22031184129284, 30.32948231936671]}}, {"type": "Feature", "properties": {"norad_id": 66463, "name": "STARLINK-35463", "group": "last-30-days", "lat": 15.348899059673084, "lon": -130.5232834323746, "alt_km": 442.3699257312728, "timestamp": "2025-12-13T13:34:33.863187+00:00", "meta": {"OBJECT_NAME": "STARLINK-35463", "OBJECT_ID": "2025-262H", "EPOCH": "2025-12-12T20:00:01.999872", "MEAN_MOTION": 15.40728057, "ECCENTRICITY": 0.00015167, "INCLINATION": 43.0007, "RA_OF_ASC_NODE": 70.8283, "ARG_OF_PERICENTER": 276.0795, "MEAN_ANOMALY": 134.4387, "EPHEMERIS_TYPE": 0, "CLASSIFICATION_TYPE": "U", "NORAD_CAT_ID": 66463, "ELEMENT_SET_NO": 999, "REV_AT_EPOCH": 565, "BSTAR": -0.0014536884, "MEAN_MOTION_DOT": -0.00060604, "MEAN_MOTION_DDOT": 0}, "tle": {"line1": "1 66463U 25262H   25346.83335648 -.00060604  00000+0 -14537-2 0  9991", "line2": "2 66463  43.0007  70.8283 0001516 276.0795 134.4387 15.40728057  5653"}}, "geometry": {"type": "Point", "coordinates": [-130.5232834323746, 15.348899059673084]}}]}